[{"OBJECT_NAME":"STARLINK-5491","OBJECT_ID":"2023-013B","EPOCH":"2026-03-09T22:00:01.999584","MEAN_MOTION":15.07657926,"ECCENTRICITY":0.00020766,"INCLINATION":43.0002,"RA_OF_ASC_NODE":286.1666,"ARG_OF_PERICENTER":260.7661,"MEAN_ANOMALY":60.7517,"EPHEMERIS_TYPE":0,"CLASSIFICATION_TYPE":"U","NORAD_CAT_ID":55332,"ELEMENT_SET_NO":999,"REV_AT_EPOCH":577,"BSTAR":0.0029645677,"MEAN_MOTION_DOT":0.00046044,"MEAN_MOTION_DDOT":0},{"OBJECT_NAME":"RAPIDEYE 2","OBJECT_ID":"2008-040A","EPOCH":"2026-03-09T16:28:01.823808","MEAN_MOTION":15.04945954,"ECCENTRICITY":0.00177122,"INCLINATION":97.4373,"RA_OF_ASC_NODE":102.2221,"ARG_OF_PERICENTER":194.2548,"MEAN_ANOMALY":165.8182,"EPHEMERIS_TYPE":0,"CLASSIFICATION_TYPE":"U","NORAD_CAT_ID":33312,"ELEMENT_SET_NO":999,"REV_AT_EPOCH":95100,"BSTAR":0.0001818221,"MEAN_MOTION_DOT":2.525e-5,"MEAN_MOTION_DDOT":0}]
